[{"OBJECT_NAME":"PROPCUBE 3","OBJECT_ID":"2015-058K","EPOCH":"2026-03-09T17:34:06.780288","MEAN_MOTION":14.93528956,"ECCENTRICITY":0.01235273,"INCLINATION":64.7688,"RA_OF_ASC_NODE":203.0958,"ARG_OF_PERICENTER":99.6156,"MEAN_ANOMALY":261.8939,"EPHEMERIS_TYPE":0,"CLASSIFICATION_TYPE":"U","NORAD_CAT_ID":40973,"ELEMENT_SET_NO":999,"REV_AT_EPOCH":9994,"BSTAR":0.00046586011,"MEAN_MOTION_DOT":5.546e-5,"MEAN_MOTION_DDOT":0},{"OBJECT_NAME":"FLOCK 4H-3","OBJECT_ID":"2025-276AS","EPOCH":"2026-03-09T22:45:50.100192","MEAN_MOTION":15.18704804,"ECCENTRICITY":0.00037272,"INCLINATION":97.4304,"RA_OF_ASC_NODE":144.2438,"ARG_OF_PERICENTER":9.3748,"MEAN_ANOMALY":350.7555,"EPHEMERIS_TYPE":0,"CLASSIFICATION_TYPE":"U","NORAD_CAT_ID":66706,"ELEMENT_SET_NO":999,"REV_AT_EPOCH":1535,"BSTAR":0.00044066638,"MEAN_MOTION_DOT":9.081e-5,"MEAN_MOTION_DDOT":0}]
